{
  "type": "FeatureCollection",
  "features": [
    {
      "type": "Feature",
      "properties": {
        "norad_id": 38857,
        "name": "GSAT0103 (GALILEO-FM3)",
        "group": "gnss",
        "lat": 43.77731793360772,
        "lon": -114.20746863879899,
        "alt_km": 23223.560830642295,
        "timestamp": "2025-12-14T07:33:19.718770+00:00",
        "meta_object_name": "GSAT0103 (GALILEO-FM3)",
        "meta_object_id": "2012-055A",
        "meta_epoch": "2025-12-13T12:39:44.093088",
        "meta_mean_motion": 1.70473367,
        "meta_eccentricity": 0.00026827,
        "meta_inclination": 55.6929,
        "meta_ra_of_asc_node": 106.6448,
        "meta_arg_of_pericenter": 268.8486,
        "meta_mean_anomaly": 91.0883,
        "meta_ephemeris_type": 0,
        "meta_classification_type": "U",
        "meta_norad_cat_id": 38857,
        "meta_element_set_no": 999,
        "meta_rev_at_epoch": 8184,
        "meta_bstar": 0,
        "meta_mean_motion_dot": 1e-08,
        "meta_mean_motion_ddot": 0,
        "tle_line1": "1 38857U 12055A   25347.52759367  .00000001  00000+0  00000+0 0  9998",
        "tle_line2": "2 38857  55.6929 106.6448 0002682 268.8486  91.0883  1.70473367 81846"
      },
      "geometry": {
        "type": "Point",
        "coordinates": [
          -114.20746863879899,
          43.77731793360772
        ]
      }
    },
    {
      "type": "Feature",
      "properties": {
        "norad_id": 38953,
        "name": "BEIDOU-2 G6 (C02)",
        "group": "gnss",
        "lat": -1.686814511734425,
        "lon": -79.58081311683004,
        "alt_km": 35784.081465051175,
        "timestamp": "2025-12-14T07:33:19.718782+00:00",
        "meta_object_name": "BEIDOU-2 G6 (C02)",
        "meta_object_id": "2012-059A",
        "meta_epoch": "2025-12-13T15:33:46.118880",
        "meta_mean_motion": 1.00269636,
        "meta_eccentricity": 0.00078758,
        "meta_inclination": 3.9519,
        "meta_ra_of_asc_node": 75.4972,
        "meta_arg_of_pericenter": 289.8907,
        "meta_mean_anomaly": 34.6349,
        "meta_ephemeris_type": 0,
        "meta_classification_type": "U",
        "meta_norad_cat_id": 38953,
        "meta_element_set_no": 999,
        "meta_rev_at_epoch": 4804,
        "meta_bstar": 0,
        "meta_mean_motion_dot": -1.61e-06,
        "meta_mean_motion_ddot": 0,
        "tle_line1": "1 38953U 12059A   25347.64845045 -.00000161  00000+0  00000+0 0  9999",
        "tle_line2": "2 38953   3.9519  75.4972 0007875 289.8907  34.6349  1.00269636 48049"
      },
      "geometry": {
        "type": "Point",
        "coordinates": [
          -79.58081311683004,
          -1.686814511734425
        ]
      }
    },
    {
      "type": "Feature",
      "properties": {
        "norad_id": 38977,
        "name": "LUCH 5B (SDCM/PRN 125)",
        "group": "gnss",
        "lat": 7.879147700899144,
        "lon": -179.40716113685914,
        "alt_km": 35772.296334568164,
        "timestamp": "2025-12-14T07:33:19.718793+00:00",
        "meta_object_name": "LUCH 5B (SDCM/PRN 125)",
        "meta_object_id": "2012-061A",
        "meta_epoch": "2025-12-13T09:56:55.876704",
        "meta_mean_motion": 1.00272264,
        "meta_eccentricity": 0.00070752,
        "meta_inclination": 10.083,
        "meta_ra_of_asc_node": 51.7008,
        "meta_arg_of_pericenter": 193.3417,
        "meta_mean_anomaly": 330.1982,
        "meta_ephemeris_type": 0,
        "meta_classification_type": "U",
        "meta_norad_cat_id": 38977,
        "meta_element_set_no": 999,
        "meta_rev_at_epoch": 4774,
        "meta_bstar": 0,
        "meta_mean_motion_dot": -1.29e-06,
        "meta_mean_motion_ddot": 0,
        "tle_line1": "1 38977U 12061A   25347.41453561 -.00000129  00000+0  00000+0 0  9995",
        "tle_line2": "2 38977  10.0830  51.7008 0007075 193.3417 330.1982  1.00272264 47748"
      },
      "geometry": {
        "type": "Point",
        "coordinates": [
          -179.40716113685914,
          7.879147700899144
        ]
      }
    },
    {
      "type": "Feature",
      "properties": {
        "norad_id": 39155,
        "name": "COSMOS 2485 (747)",
        "group": "gnss",
        "lat": -39.50712221406532,
        "lon": -77.93076985527205,
        "alt_km": 19072.17304519017,
        "timestamp": "2025-12-14T07:33:19.718805+00:00",
        "meta_object_name": "COSMOS 2485 (747)",
        "meta_object_id": "2013-019A",
        "meta_epoch": "2025-12-13T13:15:58.678272",
        "meta_mean_motion": 2.13102947,
        "meta_eccentricity": 0.00246467,
        "meta_inclination": 65.3142,
        "meta_ra_of_asc_node": 79.8396,
        "meta_arg_of_pericenter": 229.7128,
        "meta_mean_anomaly": 130.0848,
        "meta_ephemeris_type": 0,
        "meta_classification_type": "U",
        "meta_norad_cat_id": 39155,
        "meta_element_set_no": 999,
        "meta_rev_at_epoch": 9832,
        "meta_bstar": 0,
        "meta_mean_motion_dot": -4.8e-07,
        "meta_mean_motion_ddot": 0,
        "tle_line1": "1 39155U 13019A   25347.55276248 -.00000048  00000+0  00000+0 0  9998",
        "tle_line2": "2 39155  65.3142  79.8396 0024646 229.7128 130.0848  2.13102947 98326"
      },
      "geometry": {
        "type": "Point",
        "coordinates": [
          -77.93076985527205,
          -39.50712221406532
        ]
      }
    },
    {
      "type": "Feature",
      "properties": {
        "norad_id": 39166,
        "name": "GPS BIIF-4  (PRN 27)",
        "group": "gnss",
        "lat": 52.641191179279055,
        "lon": -15.301283782807404,
        "alt_km": 19852.855330163668,
        "timestamp": "2025-12-14T07:33:19.718818+00:00",
        "meta_object_name": "GPS BIIF-4  (PRN 27)",
        "meta_object_id": "2013-023A",
        "meta_epoch": "2025-12-13T05:07:46.586496",
        "meta_mean_motion": 2.0056518,
        "meta_eccentricity": 0.01379131,
        "meta_inclination": 54.6516,
        "meta_ra_of_asc_node": 276.5489,
        "meta_arg_of_pericenter": 48.6136,
        "meta_mean_anomaly": 312.5751,
        "meta_ephemeris_type": 0,
        "meta_classification_type": "U",
        "meta_norad_cat_id": 39166,
        "meta_element_set_no": 999,
        "meta_rev_at_epoch": 9215,
        "meta_bstar": 0,
        "meta_mean_motion_dot": -7.6e-07,
        "meta_mean_motion_ddot": 0,
        "tle_line1": "1 39166U 13023A   25347.21373364 -.00000076  00000+0  00000+0 0  9996",
        "tle_line2": "2 39166  54.6516 276.5489 0137913  48.6136 312.5751  2.00565180 92155"
      },
      "geometry": {
        "type": "Point",
        "coordinates": [
          -15.301283782807404,
          52.641191179279055
        ]
      }
    },
    {
      "type": "Feature",
      "properties": {
        "norad_id": 39199,
        "name": "IRNSS-1A",
        "group": "gnss",
        "lat": -3.1941134389157573,
        "lon": -108.95822929786479,
        "alt_km": 35692.30540587312,
        "timestamp": "2025-12-14T07:33:19.718830+00:00",
        "meta_object_name": "IRNSS-1A",
        "meta_object_id": "2013-034A",
        "meta_epoch": "2025-12-02T19:49:26.431104",
        "meta_mean_motion": 1.00279053,
        "meta_eccentricity": 0.00216608,
        "meta_inclination": 35.2852,
        "meta_ra_of_asc_node": 66.6964,
        "meta_arg_of_pericenter": 185.4059,
        "meta_mean_anomaly": 172.3398,
        "meta_ephemeris_type": 0,
        "meta_classification_type": "U",
        "meta_norad_cat_id": 39199,
        "meta_element_set_no": 999,
        "meta_rev_at_epoch": 4539,
        "meta_bstar": 0,
        "meta_mean_motion_dot": 6.5e-07,
        "meta_mean_motion_ddot": 0,
        "tle_line1": "1 39199U 13034A   25336.82600036  .00000065  00000+0  00000+0 0  9995",
        "tle_line2": "2 39199  35.2852  66.6964 0021660 185.4059 172.3398  1.00279053 45393"
      },
      "geometry": {
        "type": "Point",
        "coordinates": [
          -108.95822929786479,
          -3.1941134389157573
        ]
      }
    },
    {
      "type": "Feature",
      "properties": {
        "norad_id": 39533,
        "name": "GPS BIIF-5  (PRN 30)",
        "group": "gnss",
        "lat": 52.02270159742243,
        "lon": -132.36692586492146,
        "alt_km": 20353.530766109907,
        "timestamp": "2025-12-14T07:33:19.718844+00:00",
        "meta_object_name": "GPS BIIF-5  (PRN 30)",
        "meta_object_id": "2014-008A",
        "meta_epoch": "2025-12-12T17:01:11.546688",
        "meta_mean_motion": 2.00574462,
        "meta_eccentricity": 0.00792236,
        "meta_inclination": 53.6311,
        "meta_ra_of_asc_node": 156.9259,
        "meta_arg_of_pericenter": 226.5032,
        "meta_mean_anomaly": 132.848,
        "meta_ephemeris_type": 0,
        "meta_classification_type": "U",
        "meta_norad_cat_id": 39533,
        "meta_element_set_no": 999,
        "meta_rev_at_epoch": 8594,
        "meta_bstar": 0,
        "meta_mean_motion_dot": 9.5e-07,
        "meta_mean_motion_ddot": 0,
        "tle_line1": "1 39533U 14008A   25346.70916142  .00000095  00000+0  00000+0 0  9998",
        "tle_line2": "2 39533  53.6311 156.9259 0079223 226.5032 132.8480  2.00574462 85946"
      },
      "geometry": {
        "type": "Point",
        "coordinates": [
          -132.36692586492146,
          52.02270159742243
        ]
      }
    }
  ]
}